JY1SAT (JO-97)          
1 43803U 18099AX  26068.68634132  .00017774  00000+0  60804-3 0  9996
2 43803  97.4249 131.3625 0004723 256.6795 103.3919 15.30302628398390
STARLINK-33922          
1 63698U 25087B   26068.69325873  .00020283  00000+0  69520-3 0  9998
2 63698  53.1587 219.2958 0000700  65.3200 294.7873 15.30194440 49196
